ONEWEB-0564             
1 55801U 23029F   26007.83328462  .00000066  00000+0  13077-3 0  9998
2 55801  87.9218 306.4537 0002079  83.2603 276.8767 13.20772735139984
ONEWEB-0638             
1 55802U 23029G   26007.86066872  .00000228  00000+0  58031-3 0  9995
2 55802  87.9011 321.7129 0002215  76.2553 283.8824 13.14502322138337
ONEWEB-0639             
1 55803U 23029H   26007.90685108 -.00000378  00000+0 -97623-3 0  9998
2 55803  87.9220 336.8721 0001438  45.4080 314.7170 13.19729624137769
ONEWEB-0640             
1 55804U 23029J   26007.87018158  .00000121  00000+0  29176-3 0  9992
2 55804  87.9013 321.6997 0002301  63.7327 296.4039 13.14502048138354
ONEWEB-0641             
1 55805U 23029K   26007.97792725 -.00000070  00000+0 -20606-3 0  9997
2 55805  87.9228 336.8408 0001637  77.4678 282.6638 13.19724405137786
ONEWEB-0642             
1 55806U 23029L   26007.97318756 -.00000092  00000+0 -26226-3 0  9994
2 55806  87.9214 336.8620 0001159  56.1437 303.9805 13.19724661137770
ONEWEB-0643             
1 55807U 23029M   26007.91616291  .00000024  00000+0  29894-4 0  9992
2 55807  87.9012 321.6773 0001087  67.7794 292.3451 13.14503118138330
ONEWEB-0644             
1 55808U 23029N   26007.96843748 -.00000037  00000+0 -12412-3 0  9990
2 55808  87.9211 336.8721 0001431  74.0411 286.0879 13.19723333137772
